{
  "links" : {
    "next" : "https://api.nasa.gov/neo/rest/v1/feed?start_date=2013-04-09&end_date=2013-04-09&detailed=true&api_key=t0TVs3DtDT2H8Oy2Zy8m2eVrNsAVKAexjcZXUckd",
    "prev" : "https://api.nasa.gov/neo/rest/v1/feed?start_date=2013-04-07&end_date=2013-04-07&detailed=true&api_key=t0TVs3DtDT2H8Oy2Zy8m2eVrNsAVKAexjcZXUckd",
    "self" : "https://api.nasa.gov/neo/rest/v1/feed?start_date=2013-04-08&end_date=2013-04-08&detailed=true&api_key=t0TVs3DtDT2H8Oy2Zy8m2eVrNsAVKAexjcZXUckd"
  },
  "element_count" : 7,
  "near_earth_objects" : {
    "2013-04-08" : [ {
      "links" : {
        "self" : "https://api.nasa.gov/neo/rest/v1/neo/3743742?api_key=t0TVs3DtDT2H8Oy2Zy8m2eVrNsAVKAexjcZXUckd"
      },
      "neo_reference_id" : "3743742",
      "name" : "(2016 CQ195)",
      "nasa_jpl_url" : "http://ssd.jpl.nasa.gov/sbdb.cgi?sstr=3743742",
      "absolute_magnitude_h" : 18.2,
      "estimated_diameter" : {
        "kilometers" : {
          "estimated_diameter_min" : 0.6089126221,
          "estimated_diameter_max" : 1.3615700154
        },
        "meters" : {
          "estimated_diameter_min" : 608.9126221057,
          "estimated_diameter_max" : 1361.5700153859
        },
        "miles" : {
          "estimated_diameter_min" : 0.3783606449,
          "estimated_diameter_max" : 0.846040122
        },
        "feet" : {
          "estimated_diameter_min" : 1997.7448871092,
          "estimated_diameter_max" : 4467.0933692788
        }
      },
      "is_potentially_hazardous_asteroid" : false,
      "close_approach_data" : [ {
        "close_approach_date" : "2013-04-08",
        "epoch_date_close_approach" : 1365404400000,
        "relative_velocity" : {
          "kilometers_per_second" : "26.2204873712",
          "kilometers_per_hour" : "94393.7545362494",
          "miles_per_hour" : "58652.6082005934"
        },
        "miss_distance" : {
          "astronomical" : "0.4345416026",
          "lunar" : "169.0366821289",
          "kilometers" : "65006500",
          "miles" : "40393168"
        },
        "orbiting_body" : "Earth"
      } ],
      "orbital_data" : {
        "orbit_id" : "35",
        "orbit_determination_date" : "2017-04-06 08:28:18",
        "orbit_uncertainty" : "3",
        "minimum_orbit_intersection" : ".270511",
        "jupiter_tisserand_invariant" : "3.206",
        "epoch_osculation" : "2458000.5",
        "eccentricity" : ".706133344856661",
        "semi_major_axis" : "2.166143145405728",
        "inclination" : "28.38897396630055",
        "ascending_node_longitude" : "333.4573943091769",
        "orbital_period" : "1164.472283455515",
        "perihelion_distance" : ".6365572407020527",
        "perihelion_argument" : "324.808711526921",
        "aphelion_distance" : "3.695729050109403",
        "perihelion_time" : "2457607.680816525244",
        "mean_anomaly" : "121.4411953466771",
        "mean_motion" : ".3091529142554749",
        "equinox" : "J2000"
      }
    }, {
      "links" : {
        "self" : "https://api.nasa.gov/neo/rest/v1/neo/3752515?api_key=t0TVs3DtDT2H8Oy2Zy8m2eVrNsAVKAexjcZXUckd"
      },
      "neo_reference_id" : "3752515",
      "name" : "(2016 HR6)",
      "nasa_jpl_url" : "http://ssd.jpl.nasa.gov/sbdb.cgi?sstr=3752515",
      "absolute_magnitude_h" : 24.4,
      "estimated_diameter" : {
        "kilometers" : {
          "estimated_diameter_min" : 0.0350392641,
          "estimated_diameter_max" : 0.0783501764
        },
        "meters" : {
          "estimated_diameter_min" : 35.0392641108,
          "estimated_diameter_max" : 78.3501764334
        },
        "miles" : {
          "estimated_diameter_min" : 0.0217723826,
          "estimated_diameter_max" : 0.0486845275
        },
        "feet" : {
          "estimated_diameter_min" : 114.9582192654,
          "estimated_diameter_max" : 257.0543928497
        }
      },
      "is_potentially_hazardous_asteroid" : false,
      "close_approach_data" : [ {
        "close_approach_date" : "2013-04-08",
        "epoch_date_close_approach" : 1365404400000,
        "relative_velocity" : {
          "kilometers_per_second" : "12.7873924686",
          "kilometers_per_hour" : "46034.6128870021",
          "miles_per_hour" : "28604.1182130375"
        },
        "miss_distance" : {
          "astronomical" : "0.340525631",
          "lunar" : "132.4644622803",
          "kilometers" : "50941908",
          "miles" : "31653834"
        },
        "orbiting_body" : "Earth"
      } ],
      "orbital_data" : {
        "orbit_id" : "13",
        "orbit_determination_date" : "2017-04-06 08:26:19",
        "orbit_uncertainty" : "6",
        "minimum_orbit_intersection" : ".0485253",
        "jupiter_tisserand_invariant" : "4.895",
        "epoch_osculation" : "2458000.5",
        "eccentricity" : ".2172932168956054",
        "semi_major_axis" : "1.331072331649229",
        "inclination" : "3.669592301060391",
        "ascending_node_longitude" : "198.0648140189786",
        "orbital_period" : "560.9199814025513",
        "perihelion_distance" : "1.041839342784434",
        "perihelion_argument" : "39.22804924132693",
        "aphelion_distance" : "1.620305320514025",
        "perihelion_time" : "2458091.444891305411",
        "mean_anomaly" : "301.6313164881686",
        "mean_motion" : ".6418027738998326",
        "equinox" : "J2000"
      }
    }, {
      "links" : {
        "self" : "https://api.nasa.gov/neo/rest/v1/neo/3394543?api_key=t0TVs3DtDT2H8Oy2Zy8m2eVrNsAVKAexjcZXUckd"
      },
      "neo_reference_id" : "3394543",
      "name" : "(2007 VM184)",
      "nasa_jpl_url" : "http://ssd.jpl.nasa.gov/sbdb.cgi?sstr=3394543",
      "absolute_magnitude_h" : 20.9,
      "estimated_diameter" : {
        "kilometers" : {
          "estimated_diameter_min" : 0.1756123185,
          "estimated_diameter_max" : 0.3926810818
        },
        "meters" : {
          "estimated_diameter_min" : 175.6123184804,
          "estimated_diameter_max" : 392.6810818086
        },
        "miles" : {
          "estimated_diameter_min" : 0.1091204019,
          "estimated_diameter_max" : 0.2440006365
        },
        "feet" : {
          "estimated_diameter_min" : 576.1559189633,
          "estimated_diameter_max" : 1288.3238004408
        }
      },
      "is_potentially_hazardous_asteroid" : true,
      "close_approach_data" : [ {
        "close_approach_date" : "2013-04-08",
        "epoch_date_close_approach" : 1365404400000,
        "relative_velocity" : {
          "kilometers_per_second" : "20.0196719059",
          "kilometers_per_hour" : "72070.818861298",
          "miles_per_hour" : "44782.0040863437"
        },
        "miss_distance" : {
          "astronomical" : "0.4792604898",
          "lunar" : "186.4323425293",
          "kilometers" : "71696352",
          "miles" : "44550048"
        },
        "orbiting_body" : "Earth"
      } ],
      "orbital_data" : {
        "orbit_id" : "34",
        "orbit_determination_date" : "2017-09-26 06:50:10",
        "orbit_uncertainty" : "0",
        "minimum_orbit_intersection" : ".0337336",
        "jupiter_tisserand_invariant" : "5.148",
        "epoch_osculation" : "2458000.5",
        "eccentricity" : ".523263108804333",
        "semi_major_axis" : "1.182148764701506",
        "inclination" : "23.27720540354022",
        "ascending_node_longitude" : "65.77208245525733",
        "orbital_period" : "469.4686819583911",
        "perihelion_distance" : ".5635739270145939",
        "perihelion_argument" : "110.1549531441406",
        "aphelion_distance" : "1.800723602388418",
        "perihelion_time" : "2457785.992688909412",
        "mean_anomaly" : "164.4894216808606",
        "mean_motion" : ".7668243140272065",
        "equinox" : "J2000"
      }
    } ]
  }
}